IRIDIUM 119             
1 42959U 17061E   25021.58391931 -.00000007  00000+0 -94114-5 0  9995
2 42959  86.3948 238.9947 0001662  95.0194 265.1191 14.34217491381489
IRIDIUM 107             
1 42960U 17061F   25021.60295021 -.00000165  00000+0 -66163-4 0  9990
2 42960  86.3948 239.0046 0001941 102.5599 257.5814 14.34209159381496
IRIDIUM 132             
1 42961U 17061G   25021.67906171  .00000568  00000+0  19569-3 0  9995
2 42961  86.3944 238.9562 0002076  91.3016 268.8417 14.34217677381503
IRIDIUM 136             
1 42962U 17061H   25021.57122956  .00000581  00000+0  20029-3 0  9994
2 42962  86.3945 239.0056 0001763  98.8958 261.2437 14.34221042381504
IRIDIUM 139             
1 42963U 17061J   25021.71711272  .00000156  00000+0  48733-4 0  9997
2 42963  86.3946 238.9982 0002002  97.8313 262.3110 14.34218824381530
IRIDIUM 125             
1 42964U 17061K   25021.63466941  .00000487  00000+0  16682-3 0  9993
2 42964  86.3949 239.0848 0001454  98.1479 261.9881 14.34211754381539
IRIDIUM 135             
1 43070U 17083A   25021.46924941  .00000167  00000+0  52710-4 0  9994
2 43070  86.4007 175.8878 0002110  88.8968 271.2470 14.34217124370806
IRIDIUM 138             
1 43071U 17083B   25021.84345401  .00000201  00000+0  64803-4 0  9990
2 43071  86.3996 175.4220 0001278  93.5926 266.5416 14.34221923370844
